H1 CPF 01  gfz 2021 09 10 00  7531 tandemx   
H2 1003001  6202 36605    2021 09 10 00 59 42 2021 09 15 00 00 42   120 1 1  0 0 0
H9
10 0 59470  75582.000000  0   -3899312.691   2950925.592   4841746.941
10 0 59470  75702.000000  0   -4237684.902   3475427.429   4163678.447
10 0 59470  75822.000000  0   -4493280.471   3944370.247   3412301.051
10 0 59470  75942.000000  0   -4662669.300   4348059.917   2600828.722
10 0 59470  76062.000000  0   -4744097.568   4677904.112   1743546.525
10 0 59470  76182.000000  0   -4737501.163   4926598.171    855554.615
10 0 59470  76302.000000  0   -4644485.250   5088285.795    -47504.197
10 0 59470  76422.000000  0   -4468270.934   5158693.143   -949727.829
10 0 59470  76542.000000  0   -4213607.535   5135231.501  -1835246.223
10 0 59470  76662.000000  0   -3886652.218   5017063.481  -2688508.535
10 0 59470  76782.000000  0   -3494824.808   4805134.855  -3494562.995
10 0 59470  76902.000000  0   -3046637.798   4502168.383  -4239321.703
10 0 59470  77022.000000  0   -2551508.896   4112622.954  -4909804.429
10 0 59470  77142.000000  0   -2019561.177   3642620.767  -5494358.119
10 0 59470  77262.000000  0   -1461415.495   3099844.464  -5982851.553
10 0 59470  77382.000000  0    -887978.184   2493404.436  -6366841.400
10 0 59470  77502.000000  0    -310229.277   1833680.801  -6639706.254
10 0 59470  77622.000000  0     260984.038   1132144.460  -6796749.472
10 0 59470  77742.000000  0     815145.740    401159.422  -6835271.779
10 0 59470  77862.000000  0    1342260.597   -346231.075  -6754613.356
10 0 59470  77982.000000  0    1833030.033  -1096532.624  -6556162.402
10 0 59470  78102.000000  0    2279011.908  -1836036.626  -6243333.483
10 0 59470  78222.000000  0    2672763.914  -2551064.318  -5821515.369
10 0 59470  78342.000000  0    3007967.958  -3228215.677  -5297989.613
10 0 59470  78462.000000  0    3279534.681  -3854621.411  -4681815.752
10 0 59470  78582.000000  0    3483682.833  -4418188.500  -3983683.445
10 0 59470  78702.000000  0    3617993.968  -4907836.336  -3215737.866
10 0 59470  78822.000000  0    3681442.754  -5313721.452  -2391377.363
10 0 59470  78942.000000  0    3674398.882  -5627444.052  -1525023.000
10 0 59470  79062.000000  0    3598600.843  -5842228.681   -631866.173
10 0 59470  79182.000000  0    3457101.542  -5953076.359    272402.114
10 0 59470  79302.000000  0    3254185.613  -5956881.893   1171873.488
10 0 59470  79422.000000  0    2995262.671  -5852514.868   2050710.659
10 0 59470  79542.000000  0    2686736.546  -5640858.811   2893436.499
10 0 59470  79662.000000  0    2335854.564  -5324809.600   3685213.683
10 0 59470  79782.000000  0    1950542.300  -4909234.483   4412110.919
10 0 59470  79902.000000  0    1539227.199  -4400891.691   5061351.471
10 0 59470  80022.000000  0    1110656.301  -3808313.103   5621538.186
10 0 59470  80142.000000  0     673710.200  -3141652.058   6082852.225
10 0 59470  80262.000000  0     237219.019  -2412500.945   6437218.902
10 0 59470  80382.000000  0    -190214.825  -1633684.333   6678441.979
10 0 59470  80502.000000  0    -600384.499   -819031.103   6802306.254
10 0 59470  80622.000000  0    -985635.115     16872.707   6806647.911
10 0 59470  80742.000000  0   -1339005.830    858945.587   6691389.856
10 0 59470  80862.000000  0   -1654355.204   1691882.119   6458542.650
10 0 59470  80982.000000  0   -1926468.175   2500430.329   6112171.771
10 0 59470  81102.000000  0   -2151143.067   3269671.268   5658330.906
10 0 59470  81222.000000  0   -2325256.871   3985295.926   5104961.964
10 0 59470  81342.000000  0   -2446808.912   4633875.917   4461763.170
10 0 59470  81462.000000  0   -2514941.028   5203122.455   3740024.137
10 0 59470  81582.000000  0   -2529933.731   5682127.630   2952430.285
10 0 59470  81702.000000  0   -2493177.878   6061581.549   2112839.513
10 0 59470  81822.000000  0   -2407122.962   6333961.145   1236035.899
10 0 59470  81942.000000  0   -2275202.448   6493685.702    337464.068
10 0 59470  82062.000000  0   -2101738.280   6537234.848   -567050.203
10 0 59470  82182.000000  0   -1891827.271   6463226.358  -1461587.953
10 0 59470  82302.000000  0   -1651210.865   6272449.195  -2330429.219
10 0 59470  82422.000000  0   -1386131.904   5967848.418  -3158336.508
10 0 59470  82542.000000  0   -1103184.366   5554470.196  -3930823.754
10 0 59470  82662.000000  0    -809159.514   5039367.177  -4634409.944
10 0 59470  82782.000000  0    -510891.595   4431465.914  -5256850.249
10 0 59470  82902.000000  0    -215106.513   3741401.987  -5787342.467
10 0 59470  83022.000000  0      71723.463   2981324.514  -6216705.951
10 0 59470  83142.000000  0     343515.109   2164675.027  -6537528.987
10 0 59470  83262.000000  0     594697.210   1305947.908  -6744284.870
10 0 59470  83382.000000  0     820320.036    420434.642  -6833418.083
10 0 59470  83502.000000  0    1016149.081   -476044.384  -6803398.557
10 0 59470  83622.000000  0    1178741.733  -1367416.943  -6654744.092
10 0 59470  83742.000000  0    1305506.042  -2237639.023  -6390010.982
10 0 59470  83862.000000  0    1394741.717  -3070975.692  -6013755.945
10 0 59470  83982.000000  0    1445662.327  -3852282.064  -5532467.897
10 0 59470  84102.000000  0    1458397.239  -4567279.061  -4954465.905
10 0 59470  84222.000000  0    1433975.014  -5202815.839  -4289765.890
10 0 59470  84342.000000  0    1374287.106  -5747118.160  -3549918.797
10 0 59470  84462.000000  0    1282031.671  -6190016.379  -2747818.104
10 0 59470  84582.000000  0    1160639.983  -6523146.721  -1897480.604
10 0 59470  84702.000000  0    1014186.320  -6740121.685  -1013803.079
10 0 59470  84822.000000  0     847282.106  -6836663.799   -112298.805
10 0 59470  84942.000000  0     664957.885  -6810698.285    791180.217
10 0 59470  85062.000000  0     472535.987  -6662402.964   1680729.323
10 0 59470  85182.000000  0     275496.902  -6394213.228   2540680.681
10 0 59470  85302.000000  0      79342.787  -6010779.899   3355889.445
10 0 59470  85422.000000  0    -110538.901  -5518880.854   4112007.228
10 0 59470  85542.000000  0    -289007.576  -4927292.988   4795737.685
10 0 59470  85662.000000  0    -451293.943  -4246625.895   5395071.939
10 0 59470  85782.000000  0    -593113.622  -3489121.939   5899498.208
10 0 59470  85902.000000  0    -710768.073  -2668425.893   6300182.973
10 0 59470  86022.000000  0    -801230.415  -1799331.503   6590118.043
10 0 59470  86142.000000  0    -862214.750   -897512.147   6764236.421
10 0 59470  86262.000000  0    -892228.311     20763.415   6819496.948
10 0 59470  86382.000000  0    -890605.224    938925.203   6754934.382
10 0 59471    102.000000  0    -857520.184   1840400.718   6571675.190
10 0 59471    222.000000  0    -793982.610   2708913.543   6272918.984
10 0 59471    342.000000  0    -701811.858   3528777.381   5863886.334
10 0 59471    462.000000  0    -583593.818   4285181.775   5351732.599
10 0 59471    582.000000  0    -442619.115   4964463.483   4745428.703
10 0 59471    702.000000  0    -282804.522   5554361.421   4055610.065
10 0 59471    822.000000  0    -108598.048   6044245.346   3294392.437
10 0 59471    942.000000  0      75128.114   6425317.565   2475164.600
10 0 59471   1062.000000  0     263196.876   6690785.377   1612349.098
10 0 59471   1182.000000  0     450255.211   6835988.195    721142.007
10 0 59471   1302.000000  0     630908.038   6858484.586   -182761.172
10 0 59471   1422.000000  0     799854.274   6758094.999  -1083450.758
10 0 59471   1542.000000  0     952020.099   6536897.895  -1965091.736
10 0 59471   1662.000000  0    1082686.581   6199181.555  -2812209.251
10 0 59471   1782.000000  0    1187609.416   5751352.442  -3609965.469
10 0 59471   1902.000000  0    1263127.840   5201802.644  -4344421.838
10 0 59471   2022.000000  0    1306259.870   4560740.130  -5002781.351
10 0 59471   2142.000000  0    1314781.726   3839987.004  -5573605.659
10 0 59471   2262.000000  0    1287289.611   3052752.393  -6047005.259
10 0 59471   2382.000000  0    1223243.117   2213383.104  -6414800.525
10 0 59471   2502.000000  0    1122989.429   1337099.368  -6670650.436
10 0 59471   2622.000000  0     987768.668    439720.766  -6810151.977
10 0 59471   2742.000000  0     819700.045   -462615.645  -6830907.973
10 0 59471   2862.000000  0     621748.868  -1353739.839  -6732562.754
10 0 59471   2982.000000  0     397675.309  -2217730.484  -6516806.028
10 0 59471   3102.000000  0     151965.984  -3039191.255  -6187348.460
10 0 59471   3222.000000  0    -110252.477  -3803522.106  -5749866.074
10 0 59471   3342.000000  0    -383314.918  -4497177.267  -5211911.304
10 0 59471   3462.000000  0    -661133.214  -5107907.538  -4582794.400
10 0 59471   3582.000000  0    -937324.979  -5624983.206  -3873433.734
10 0 59471   3702.000000  0   -1205352.577  -6039392.216  -3096175.742
10 0 59471   3822.000000  0   -1458669.361  -6344008.636  -2264587.032
10 0 59471   3942.000000  0   -1690870.302  -6533728.172  -1393221.333
10 0 59471   4062.000000  0   -1895843.066  -6605566.001   -497363.783
10 0 59471   4182.000000  0   -2067915.804  -6558713.020    407241.882
10 0 59471   4302.000000  0   -2201998.187  -6394548.473   1304677.203
10 0 59471   4422.000000  0   -2293711.612  -6116608.359   2179137.914
10 0 59471   4542.000000  0   -2339504.945  -5730510.007   3015221.525
10 0 59471   4662.000000  0   -2336752.403  -5243834.571   3798206.547
10 0 59471   4782.000000  0   -2283831.417  -4665971.296   4514316.896
10 0 59471   4902.000000  0   -2180179.146  -4007928.578   5150966.575
10 0 59471   5022.000000  0   -2026326.802  -3282115.570   5696981.524
10 0 59471   5142.000000  0   -1823909.631  -2502098.768   6142792.591
10 0 59471   5262.000000  0   -1575652.832  -1682342.484   6480597.505
10 0 59471   5382.000000  0   -1285335.104   -837936.834   6704492.111
10 0 59471   5502.000000  0    -957730.889     15683.331   6810567.069
10 0 59471   5622.000000  0    -598532.184    863019.988   6796971.027
99
